Total gap duration: 6:12:08.917279
STARLINK-6094
1 56122U 23046AF  24101.38678839 -.00002548  00000+0 -17346-3 0  9995
2 56122  43.0062 352.9380 0001349 270.7805  89.2883 15.02562504 57560
Total gap duration: 6:03:34.333226
STARLINK-1921
1 46752U 20074P   24101.33047239  .00006835  00000+0  47691-3 0  9997
2 46752  53.0523 216.6714 0001331  94.6192 265.4950 15.06431023191434
Total gap duration: 6:12:37.704489
STARLINK-31413
1 59353U 24060F   24101.58335648 -.00997977  00000+0 -61665-2 0  9992
2 59353  43.0011 283.5860 0001465 260.7093   9.7944 15.78820411  2812
Total gap duration: 6:07:54.840442
STARLINK-3970
1 52706U 22053BC  24101.18047461  .00000410  00000+0  43876-4 0  9997
2 52706  53.2213  29.8554 0001939  99.9053 260.2158 15.08838751105431
Total gap duration: 6:12:25.522662
STARLINK-3104
1 49150U 21082W   24100.84972933 -.00001012  00000+0 -77058-4 0  9990
2 49150  70.0001 256.4730 0002723 272.3484  87.7364 14.98319427142493
Total gap duration: 6:10:42.358505
STARLINK-30321
1 57679U 23124S   24101.58335648  .02530094  00000+0  95871-1 0  9999
2 57679  53.1185 212.1931 0001182  83.5369  46.0642 15.22689299 36187
Total gap duration: 6:08:31.878544
STARLINK-6302
1 56396U 23061Y   24101.49156324  .00001093  00000+0  95989-4 0  9999
2 56396  43.0029  18.6165 0001046 264.8952  95.1771 15.02534459 52165
Total gap duration: 6:11:49.386345
STARLINK-30982
1 58512U 23191E   24100.91233626  .00004393  00000+0  34003-3 0  9997
2 58512  43.0001 303.2364 0001523 272.9591  87.1077 15.02539710 20328
Total gap duration: 6:11:37.464099
STARLINK-31643
1 59388U 24062Q   24101.25001157 -.01250639  00000+0 -76852-2 0  9993
2 59388  53.1652 277.2665 0000536  76.0362 238.9819 15.79359842  2498
Total gap duration: 6:14:36.623257
STARLINK-5767
1 55586U 23020T   24101.55966611 -.00000100  00000+0  76503-5 0  9990
2 55586  43.0038 197.9805 0001409 267.8379  92.2302 15.02533684 63907
Total gap duration: 6:11:42.216478
